[{"OBJECT_NAME":"EZIE-C","OBJECT_ID":"2025-052AR","EPOCH":"2026-03-09T16:54:14.963904","MEAN_MOTION":14.96297342,"ECCENTRICITY":0.00032112,"INCLINATION":97.6981,"RA_OF_ASC_NODE":322.3863,"ARG_OF_PERICENTER":161.3597,"MEAN_ANOMALY":198.7743,"EPHEMERIS_TYPE":0,"CLASSIFICATION_TYPE":"U","NORAD_CAT_ID":63249,"ELEMENT_SET_NO":999,"REV_AT_EPOCH":5378,"BSTAR":0.0007072062,"MEAN_MOTION_DOT":7.941e-5,"MEAN_MOTION_DDOT":0},{"OBJECT_NAME":"ELECTRON KICK STAGE R\/B","OBJECT_ID":"2025-056G","EPOCH":"2026-03-09T21:12:24.592608","MEAN_MOTION":14.88206296,"ECCENTRICITY":0.0041452,"INCLINATION":98.0089,"RA_OF_ASC_NODE":203.1135,"ARG_OF_PERICENTER":310.8262,"MEAN_ANOMALY":48.9362,"EPHEMERIS_TYPE":0,"CLASSIFICATION_TYPE":"U","NORAD_CAT_ID":63306,"ELEMENT_SET_NO":999,"REV_AT_EPOCH":5300,"BSTAR":0.00035441054,"MEAN_MOTION_DOT":3.262e-5,"MEAN_MOTION_DDOT":0}]
